STARLINK-31403          
1 59186U 24045J   26068.08160002  .00000618  00000+0  31976-4 0  9997
2 59186  43.0043  74.5467 0001295 248.8644 111.2070 15.27581752113258
KUIPER-00266            
1 67789U 26030AB  26067.91293632  .00029701  00000+0  98220-3 0  9996
2 67789  51.8807 223.5904 0022313  72.5291 287.8129 15.30874235  4964
